IRIDIUM 5 [-]           
1 24795U 97020D   23275.74401946  .00008415  00000+0  85500-3 0  9997
2 24795  86.4008   8.6108 0128196 197.4310 162.2496 14.84679792392685
IRIDIUM 4 [-]           
1 24796U 97020E   23275.85291334  .00000780  00000+0  26274-3 0  9998
2 24796  86.3914  75.2681 0002271  90.0572 270.0885 14.35818873382994
IRIDIUM 914 [-]         
1 24836U 97030A   23275.87598066  .00000892  00000+0  27925-3 0  9996
2 24836  86.3878  85.6876 0003925 101.2785 258.8855 14.39613409517417
IRIDIUM 911 [-]         
1 24842U 97030G   23275.61879317  .00000891  00000+0  24432-3 0  9995
2 24842  86.4410 106.4633 0015175  22.9344 337.2533 14.46022977384925
IRIDIUM 17 [-]          
1 24870U 97034B   23275.90538769  .00000621  00000+0  20454-3 0  9996
2 24870  86.3962 136.6706 0000521 120.8159 239.3089 14.36610176374069
IRIDIUM 920 [-]         
1 24871U 97034C   23275.81666811  .00000610  00000+0  18631-3 0  9999
2 24871  86.3938 117.3966 0011064 347.6303  12.4623 14.40323275376816
